start=new Date('2023-02-18T00:00:00.000Z').valueOf();
sats=[{"MEAN_MOTION":"15.08798466","FILE":"3802730","CENTER_NAME":"EARTH","TIME_SYSTEM":"UTC","COUNTRY_CODE":"US","RCS_SIZE":"LARGE","MEAN_MOTION_DDOT":"0.0000000000000","ECCENTRICITY":"0.00015050","TLE_LINE2":"2 52865  53.2145 354.5550 0001505 112.9848 247.1303 15.08798466 37430","DECAY_DATE":null,"GP_ID":"225782085","OBJECT_ID":"2022-062AM","INCLINATION":"53.2145","MEAN_MOTION_DOT":"0.00017252","CLASSIFICATION_TYPE":"U","ARG_OF_PERICENTER":"112.9848","MEAN_ELEMENT_THEORY":"SGP4","SEMIMAJOR_AXIS":"6918.007","EPHEMERIS_TYPE":"0","OBJECT_NAME":"STARLINK-4274","NORAD_CAT_ID":"52865","BSTAR":"0.00110060000000","RA_OF_ASC_NODE":"354.5550","PERIAPSIS":"538.831","APOAPSIS":"540.914","REV_AT_EPOCH":"3743","REF_FRAME":"TEME","TLE_LINE1":"1 52865U 22062AM  23048.57639880  .00017252  00000-0  11006-2 0  9998","SITE":"AFETR","MEAN_ANOMALY":"247.1303","PERIOD":"95.440","LAUNCH_DATE":"2022-06-17","ELEMENT_SET_NO":"999","EPOCH":"2023-02-17T13:50:00.856320","OBJECT_TYPE":"PAYLOAD"},{"OBJECT_ID":"2022-062AN","INCLINATION":"53.2166","MEAN_MOTION_DOT":"0.00026468","CLASSIFICATION_TYPE":"U","ARG_OF_PERICENTER":"72.8649","MEAN_ELEMENT_THEORY":"SGP4","SEMIMAJOR_AXIS":"6917.991","MEAN_MOTION":"15.08803708","FILE":"3802730","CENTER_NAME":"EARTH","TIME_SYSTEM":"UTC","COUNTRY_CODE":"US","RCS_SIZE":"LARGE","ECCENTRICITY":"0.00022570","MEAN_MOTION_DDOT":"0.0000000000000","TLE_LINE2":"2 52866  53.2166 354.5203 0002257  72.8649 287.2590 15.08803708 37436","DECAY_DATE":null,"GP_ID":"225780835","REF_FRAME":"TEME","REV_AT_EPOCH":"3743","TLE_LINE1":"1 52866U 22062AN  23048.58376031  .00026468  00000-0  16765-2 0  9992","SITE":"AFETR","MEAN_ANOMALY":"287.2590","PERIOD":"95.440","LAUNCH_DATE":"2022-06-17","ELEMENT_SET_NO":"999","OBJECT_TYPE":"PAYLOAD","EPOCH":"2023-02-17T14:00:36.890784","EPHEMERIS_TYPE":"0","OBJECT_NAME":"STARLINK-4272","NORAD_CAT_ID":"52866","BSTAR":"0.00167650000000","RA_OF_ASC_NODE":"354.5203","PERIAPSIS":"538.295","APOAPSIS":"541.418"},{"CLASSIFICATION_TYPE":"U","ARG_OF_PERICENTER":"54.4176","MEAN_ELEMENT_THEORY":"SGP4","SEMIMAJOR_AXIS":"6917.990","OBJECT_ID":"2022-062AP","INCLINATION":"53.2151","MEAN_MOTION_DOT":"0.00016703","COUNTRY_CODE":"US","RCS_SIZE":"LARGE","ECCENTRICITY":"0.00016950","MEAN_MOTION_DDOT":"0.0000000000000","TLE_LINE2":"2 52867  53.2151 354.5877 0001695  54.4176 305.6973 15.08803982 37438","GP_ID":"225781583","DECAY_DATE":null,"MEAN_MOTION":"15.08803982","FILE":"3802730","CENTER_NAME":"EARTH","TIME_SYSTEM":"UTC","PERIOD":"95.440","LAUNCH_DATE":"2022-06-17","ELEMENT_SET_NO":"999","OBJECT_TYPE":"PAYLOAD","EPOCH":"2023-02-17T13:39:24.833952","REV_AT_EPOCH":"3743","REF_FRAME":"TEME","TLE_LINE1":"1 52867U 22062AP  23048.56903743  .00016703  00000-0  10661-2 0  9997","SITE":"AFETR","MEAN_ANOMALY":"305.6973","PERIAPSIS":"538.683","APOAPSIS":"541.028","EPHEMERIS_TYPE":"0","OBJECT_NAME":"STARLINK-4126","NORAD_CAT_ID":"52867","BSTAR":"0.00106610000000","RA_OF_ASC_NODE":"354.5877"},{"MEAN_ANOMALY":"300.3170","REV_AT_EPOCH":"3743","REF_FRAME":"TEME","SITE":"AFETR","TLE_LINE1":"1 52868U 22062AQ  23048.57735590  .00027751  00000-0  17558-2 0  9999","EPOCH":"2023-02-17T13:51:23.549760","OBJECT_TYPE":"PAYLOAD","ELEMENT_SET_NO":"999","PERIOD":"95.439","LAUNCH_DATE":"2022-06-17","BSTAR":"0.00175580000000","RA_OF_ASC_NODE":"354.5493","OBJECT_NAME":"STARLINK-4261","EPHEMERIS_TYPE":"0","NORAD_CAT_ID":"52868","APOAPSIS":"541.285","PERIAPSIS":"538.332","MEAN_MOTION_DOT":"0.00027751","OBJECT_ID":"2022-062AQ","INCLINATION":"53.2157","MEAN_ELEMENT_THEORY":"SGP4","SEMIMAJOR_AXIS":"6917.944","CLASSIFICATION_TYPE":"U","ARG_OF_PERICENTER":"59.8033","TIME_SYSTEM":"UTC","CENTER_NAME":"EARTH","MEAN_MOTION":"15.08819333","FILE":"3802730","DECAY_DATE":null,"GP_ID":"225781832","RCS_SIZE":"LARGE","COUNTRY_CODE":"US","TLE_LINE2":"2 52868  53.2157 354.5493 0002134  59.8033 300.3170 15.08819333 37437","MEAN_MOTION_DDOT":"0.0000000000000","ECCENTRICITY":"0.00021340"},{"TLE_LINE2":"2 52869  53.2184 343.1197 0001388  94.8793 265.2357 15.08822203 37611","MEAN_MOTION_DDOT":"0.0000000000000","ECCENTRICITY":"0.00013880","RCS_SIZE":"LARGE","COUNTRY_CODE":"US","GP_ID":"225837346","DECAY_DATE":null,"FILE":"3804075","MEAN_MOTION":"15.08822203","TIME_SYSTEM":"UTC","CENTER_NAME":"EARTH","ARG_OF_PERICENTER":"94.8793","CLASSIFICATION_TYPE":"U","MEAN_ELEMENT_THEORY":"SGP4","SEMIMAJOR_AXIS":"6917.935","OBJECT_ID":"2022-062AR","INCLINATION":"53.2184","MEAN_MOTION_DOT":"-0.00000767","APOAPSIS":"540.760","PERIAPSIS":"538.840","NORAD_CAT_ID":"52869","OBJECT_NAME":"STARLINK-4266","EPHEMERIS_TYPE":"0","RA_OF_ASC_NODE":"343.1197","BSTAR":"-0.00003014000000","LAUNCH_DATE":"2022-06-17","PERIOD":"95.439","OBJECT_TYPE":"PAYLOAD","EPOCH":"2023-02-17T21:27:04.434912","ELEMENT_SET_NO":"999","SITE":"AFETR","TLE_LINE1":"1 52869U 22062AR  23048.89380133 -.00000767  00000-0 -30140-4 0  9998","REF_FRAME":"TEME","REV_AT_EPOCH":"3761","MEAN_ANOMALY":"265.2357"},{"TIME_SYSTEM":"UTC","CENTER_NAME":"EARTH","MEAN_MOTION":"15.08773290","FILE":"3804075","GP_ID":"225837597","DECAY_DATE":null,"RCS_SIZE":"LARGE","COUNTRY_CODE":"US","TLE_LINE2":"2 52870  53.2151 353.0830 0001225  90.9707 269.1425 15.08773290 37488","ECCENTRICITY":"0.00012250","MEAN_MOTION_DDOT":"0.0000000000000","MEAN_MOTION_DOT":"0.00038416","INCLINATION":"53.2151","OBJECT_ID":"2022-062AS","SEMIMAJOR_AXIS":"6918.084","MEAN_ELEMENT_THEORY":"SGP4","CLASSIFICATION_TYPE":"U","ARG_OF_PERICENTER":"90.9707","BSTAR":"0.00242310000000","RA_OF_ASC_NODE":"353.0830","OBJECT_NAME":"STARLINK-4195","EPHEMERIS_TYPE":"0","NORAD_CAT_ID":"52870","APOAPSIS":"540.797","PERIAPSIS":"539.102","MEAN_ANOMALY":"269.1425","REV_AT_EPOCH":"3748","REF_FRAME":"TEME","SITE":"AFETR","TLE_LINE1":"1 52870U 22062AS  23048.90389950  .00038416  00000-0  24231-2 0  9990","EPOCH":"2023-02-17T21:41:36.916800","OBJECT_TYPE":"PAYLOAD","ELEMENT_SET_NO":"999","PERIOD":"95.442","LAUNCH_DATE":"2022-06-17"},{"MEAN_MOTION":"15.08817056","FILE":"3802730","TIME_SYSTEM":"UTC","CENTER_NAME":"EARTH","COUNTRY_CODE":"US","RCS_SIZE":"LARGE","TLE_LINE2":"2 52871  53.2188 344.6583 0002254  73.6604 286.4636 15.08817056 37561","MEAN_MOTION_DDOT":"0.0000000000000","ECCENTRICITY":"0.00022540","GP_ID":"225781085","DECAY_DATE":null,"INCLINATION":"53.2188","OBJECT_ID":"2022-062AT","MEAN_MOTION_DOT":"-0.00004910","CLASSIFICATION_TYPE":"U","ARG_OF_PERICENTER":"73.6604","MEAN_ELEMENT_THEORY":"SGP4","SEMIMAJOR_AXIS":"6917.951","OBJECT_NAME":"STARLINK-4207","EPHEMERIS_TYPE":"0","NORAD_CAT_ID":"52871","BSTAR":"-0.00029077000000","RA_OF_ASC_NODE":"344.6583","APOAPSIS":"541.375","PERIAPSIS":"538.256","REF_FRAME":"TEME","REV_AT_EPOCH":"3756","SITE":"AFETR","TLE_LINE1":"1 52871U 22062AT  23048.55155703 -.00004910  00000-0 -29077-3 0  9997","MEAN_ANOMALY":"286.4636","PERIOD":"95.439","LAUNCH_DATE":"2022-06-17","EPOCH":"2023-02-17T13:14:14.527392","OBJECT_TYPE":"PAYLOAD","ELEMENT_SET_NO":"999"},{"GP_ID":"225804835","DECAY_DATE":null,"COUNTRY_CODE":"US","RCS_SIZE":"LARGE","TLE_LINE2":"2 52872  53.2187 346.7031 0001507  82.3233 277.7930 15.08820379 37985","ECCENTRICITY":"0.00015070","MEAN_MOTION_DDOT":"0.0000000000000","TIME_SYSTEM":"UTC","CENTER_NAME":"EARTH","MEAN_MOTION":"15.08820379","FILE":"3803588","SEMIMAJOR_AXIS":"6917.940","MEAN_ELEMENT_THEORY":"SGP4","CLASSIFICATION_TYPE":"U","ARG_OF_PERICENTER":"82.3233","MEAN_MOTION_DOT":"-0.00004644","INCLINATION":"53.2187","OBJECT_ID":"2022-062AU","APOAPSIS":"540.848","PERIAPSIS":"538.763","BSTAR":"-0.00027401000000","RA_OF_ASC_NODE":"346.7031","OBJECT_NAME":"STARLINK-4213","EPHEMERIS_TYPE":"0","NORAD_CAT_ID":"52872","EPOCH":"2023-02-17T02:17:07.359648","OBJECT_TYPE":"PAYLOAD","ELEMENT_SET_NO":"999","PERIOD":"95.439","LAUNCH_DATE":"2022-06-17","MEAN_ANOMALY":"277.7930","REV_AT_EPOCH":"3798","REF_FRAME":"TEME","SITE":"AFETR","TLE_LINE1":"1 52872U 22062AU  23048.09522407 -.00004644  00000-0 -27401-3 0  9999"},{"BSTAR":"0.00252700000000","RA_OF_ASC_NODE":"343.2103","OBJECT_NAME":"STARLINK-4211","EPHEMERIS_TYPE":"0","NORAD_CAT_ID":"52873","APOAPSIS":"540.898","PERIAPSIS":"538.735","MEAN_ANOMALY":"279.2907","REF_FRAME":"TEME","REV_AT_EPOCH":"3761","SITE":"AFETR","TLE_LINE1":"1 52873U 22062AV  23048.87540136  .00040133  00000-0  25270-2 0  9997","OBJECT_TYPE":"PAYLOAD","EPOCH":"2023-02-17T21:00:34.677504","ELEMENT_SET_NO":"999","PERIOD":"95.439","LAUNCH_DATE":"2022-06-17","TIME_SYSTEM":"UTC","CENTER_NAME":"EARTH","MEAN_MOTION":"15.08816736","FILE":"3804075","GP_ID":"225836847","DECAY_DATE":null,"COUNTRY_CODE":"US","RCS_SIZE":"LARGE","TLE_LINE2":"2 52873  53.2159 343.2103 0001563  80.8262 279.2907 15.08816736 37617","MEAN_MOTION_DDOT":"0.0000000000000","ECCENTRICITY":"0.00015630","MEAN_MOTION_DOT":"0.00040133","OBJECT_ID":"2022-062AV","INCLINATION":"53.2159","SEMIMAJOR_AXIS":"6917.951","MEAN_ELEMENT_THEORY":"SGP4","CLASSIFICATION_TYPE":"U","ARG_OF_PERICENTER":"80.8262"},{"OBJECT_NAME":"STARLINK-4210","EPHEMERIS_TYPE":"0","NORAD_CAT_ID":"52874","BSTAR":"-0.00016516000000","RA_OF_ASC_NODE":"344.6394","APOAPSIS":"540.411","PERIAPSIS":"539.155","REV_AT_EPOCH":"3756","REF_FRAME":"TEME","SITE":"AFETR","TLE_LINE1":"1 52874U 22062AW  23048.55523441 -.00002914  00000-0 -16516-3 0  9994","MEAN_ANOMALY":"290.7967","PERIOD":"95.438","LAUNCH_DATE":"2022-06-17","OBJECT_TYPE":"PAYLOAD","EPOCH":"2023-02-17T13:19:32.253024","ELEMENT_SET_NO":"999","MEAN_MOTION":"15.08827770","FILE":"3802730","TIME_SYSTEM":"UTC","CENTER_NAME":"EARTH","COUNTRY_CODE":"US","RCS_SIZE":"LARGE","TLE_LINE2":"2 52874  53.2192 344.6394 0000908  69.3122 290.7967 15.08827770 37569","MEAN_MOTION_DDOT":"0.0000000000000","ECCENTRICITY":"0.00009080","GP_ID":"225780836","DECAY_DATE":null,"OBJECT_ID":"2022-062AW","INCLINATION":"53.2192","MEAN_MOTION_DOT":"-0.00002914","CLASSIFICATION_TYPE":"U","ARG_OF_PERICENTER":"69.3122","MEAN_ELEMENT_THEORY":"SGP4","SEMIMAJOR_AXIS":"6917.918"}];
